[Satellite]
VERSION=1.1
NAME=STARLINK-4799
NICKNAME=STARLINK-4799
TLE1=1 53860U 22114AU  22290.91667824 -.00024594  00000+0 -17123-3 0  9992
TLE2=2 53860  53.2159 115.8693 0000968  86.4318  72.3441 15.73214588  1304
STATUS=0
